OBJECT_NAME,OBJECT_ID,EPOCH,MEAN_MOTION,ECCENTRICITY,INCLINATION,RA_OF_ASC_NODE,ARG_OF_PERICENTER,MEAN_ANOMALY,EPHEMERIS_TYPE,CLASSIFICATION_TYPE,NORAD_CAT_ID,ELEMENT_SET_NO,REV_AT_EPOCH,BSTAR,MEAN_MOTION_DOT,MEAN_MOTION_DDOT
PERSEUS-M1,2014-033AF,2026-05-18T07:55:43.068576,14.95523176,.0012724,97.9634,81.9777,42.8372,317.3837,0,U,40039,999,64617,.13186E-3,.1402E-4,0
POLYITAN-1,2014-033AJ,2026-05-18T00:29:25.960704,15.32137260,.0005638,98.0958,161.4533,243.4651,116.6011,0,U,40042,999,64897,.40156E-3,.12383E-3,0
TIGRISAT,2014-033AK,2026-05-18T09:39:30.506688,14.85021879,.0049726,97.7798,289.1061,170.8027,189.4111,0,U,40043,999,64120,.16395E-3,.1375E-4,0
AEROCUBE 6A,2014-033AM,2026-05-18T08:44:25.285920,14.97752106,.0040178,97.7222,305.6431,114.4002,246.1421,0,U,40045,999,64215,.29317E-3,.3436E-4,0
AEROCUBE 6B,2014-033AN,2026-05-18T11:05:22.226784,14.99173041,.0038503,97.7175,305.4682,107.4236,253.1202,0,U,40046,999,64230,.32628E-3,.3972E-4,0
CANX-4,2014-034C,2026-05-18T05:25:59.200032,14.81203571,.0014077,98.3159,12.4349,105.7344,254.5421,0,U,40055,999,64009,.79924E-4,.566E-5,0
CANX-5,2014-034D,2026-05-18T02:09:40.600800,14.81220629,.0014071,98.3163,12.3353,106.3261,253.9499,0,U,40056,999,63088,.82172E-4,.583E-5,0
UKUBE-1,2014-037F,2026-05-18T11:30:21.130272,15.13028346,.0000364,98.4239,138.6440,131.9881,228.1378,0,U,40074,999,64406,.31135E-3,.5423E-4,0
BRITE-PL2 (HEWELIUSZ),2014-049B,2026-05-18T07:28:58.371744,14.94468289,.0013576,97.9065,250.0897,203.4228,156.6375,0,U,40119,999,63698,.12594E-3,.1301E-4,0
AEROCUBE 5C,2015-058B,2026-05-18T07:56:00.146400,14.91270598,.012992,64.7682,355.4611,75.0051,286.5399,0,U,40965,999,36120,.18686E-3,.2012E-4,0
AEROCUBE 7,2015-058C,2026-05-18T13:05:14.631936,14.95478512,.0119693,64.7626,337.6442,73.6037,287.8195,0,U,40966,999,36152,.24206E-3,.2919E-4,0
FOX-1A (AO-85),2015-058D,2026-05-18T02:24:05.075136,14.90778967,.0129183,64.7765,12.4727,68.3958,293.0860,0,U,40967,999,10908,.21248E-3,.2278E-4,0
SINOD-D 1,2015-058E,2026-05-17T07:45:27.281088,14.95649294,.01176591,64.7761,355.5486,65.4694,295.8632,0,U,40968,999,11204,.25586287E-3,.3096E-4,0
SNAP-3 ALICE,2015-058G,2026-05-18T11:52:10.987968,15.53991643,.0033235,64.7518,206.0509,27.2335,333.0541,0,U,40970,999,11226,.71693E-3,.47791E-3,0
LMRST-SAT,2015-058H,2026-05-18T05:58:39.313632,14.90404641,.0130952,64.7771,8.2915,70.3605,291.1585,0,U,40971,999,10909,.19788E-3,.2096E-4,0
SNAP-3 EDDIE,2015-058J,2026-05-18T10:37:55.873056,15.55148925,.0033667,64.7434,197.1657,30.9981,329.3140,0,U,40972,999,11439,.67812E-3,.47195E-3,0
PROPCUBE 3,2015-058K,2026-05-18T00:33:17.852256,14.94037791,.0123068,64.7689,346.7648,71.9360,289.5115,0,U,40973,999,11029,.23543E-3,.2744E-4,0
BISONSAT,2015-058L,2026-05-18T11:27:11.185920,15.15548091,.0078637,64.7603,269.6454,59.8780,301.0108,0,U,40974,999,11111,.33411E-3,.6676E-4,0
SNAP-3 JIMI,2015-058M,2026-05-18T11:54:51.933024,15.01974279,.0105058,64.7647,313.6885,67.7032,293.5184,0,U,40975,999,10976,.26739E-3,.3767E-4,0
PROPCUBE 1 (FLORA),2015-058N,2026-05-18T02:37:23.093184,14.89036393,.0129745,64.7761,28.4429,72.6996,288.8262,0,U,40976,999,11178,.20931E-3,.2137E-4,0
SINOD-D 3,2015-058P,2026-05-18T09:13:31.594944,14.93769393,.0118237,64.7736,8.8679,70.0409,291.3394,0,U,40977,999,11030,.23996E-3,.2747E-4,0
HORYU-4,2016-012D,2026-05-18T13:21:54.705888,15.79552983,.0004661,30.9887,293.6545,74.4764,285.6408,0,U,41340,999,56610,.6787E-3,.131199E-2,0
RAVAN,2016-067B,2026-05-18T09:46:48.908064,15.51749826,.0007212,97.9935,24.6077,105.3374,254.8674,0,U,41849,999,52307,.46544E-3,.2773E-3,0
CELTEE 1,2016-067C,2026-05-18T02:42:34.504704,15.19358584,.000155,98.0707,2.6307,56.8661,303.2721,0,U,41850,999,52131,.16988E-3,.3514E-4,0
OPTICUBE 04,2016-067D,2026-05-18T07:37:04.947168,15.09520653,.0014809,98.0727,349.0410,214.5355,145.4912,0,U,41851,999,52066,.94623E-4,.1449E-4,0
AEROCUBE 8D,2016-067E,2026-05-18T08:24:02.199744,15.23941579,.0002281,98.0716,6.2566,217.4113,142.6964,0,U,41852,999,52152,.19073E-3,.453E-4,0
AEROCUBE 8C,2016-067F,2026-05-18T04:23:16.498176,15.24178667,.0005975,98.0589,3.3438,150.3894,209.7680,0,U,41853,999,52149,.20045E-3,.4801E-4,0
CORVUS BC2,2017-042X,2026-05-18T08:46:33.125088,15.06086016,.0012311,97.4040,300.8850,207.1063,152.9523,0,U,42846,999,48257,.11432E-3,.1613E-4,0
CORVUS BC1,2017-042Y,2026-05-18T08:43:40.185984,15.06256630,.0011849,97.4069,301.6776,182.5577,177.5592,0,U,42847,999,48260,.10679E-3,.151E-4,0
MAKERSAT 0,2017-073D,2026-05-18T09:15:12.313152,15.30759863,.0110697,97.4666,20.6957,20.1590,340.3970,0,U,43016,999,46190,.41471E-3,.14841E-3,0
